[{"OBJECT_NAME":"IRIDIUM 177","OBJECT_ID":"2023-068T","EPOCH":"2026-03-09T21:08:04.695360","MEAN_MOTION":14.80207725,"ECCENTRICITY":0.00023207,"INCLINATION":86.2006,"RA_OF_ASC_NODE":15.9326,"ARG_OF_PERICENTER":75.4952,"MEAN_ANOMALY":284.6526,"EPHEMERIS_TYPE":0,"CLASSIFICATION_TYPE":"U","NORAD_CAT_ID":56727,"ELEMENT_SET_NO":999,"REV_AT_EPOCH":15167,"BSTAR":0.00019232012,"MEAN_MOTION_DOT":1.487e-5,"MEAN_MOTION_DDOT":0},{"OBJECT_NAME":"IRIDIUM 33 DEB","OBJECT_ID":"1997-051WG","EPOCH":"2026-03-08T23:53:43.067040","MEAN_MOTION":14.78815677,"ECCENTRICITY":0.00051451,"INCLINATION":86.3665,"RA_OF_ASC_NODE":331.4918,"ARG_OF_PERICENTER":93.6295,"MEAN_ANOMALY":266.5514,"EPHEMERIS_TYPE":0,"CLASSIFICATION_TYPE":"U","NORAD_CAT_ID":36490,"ELEMENT_SET_NO":999,"REV_AT_EPOCH":87758,"BSTAR":0.0022743577,"MEAN_MOTION_DOT":0.00016774,"MEAN_MOTION_DDOT":0}]
